[
    {
      "OBJECT_NAME": "ONEWEB-0360",
      "OBJECT_ID": "2021-090H",
      "EPOCH": "2026-03-26T23:19:12.314784",
      "MEAN_MOTION": 13.20771335,
      "ECCENTRICITY": 0.00016705,
      "INCLINATION": 87.9149,
      "RA_OF_ASC_NODE": 290.8567,
      "ARG_OF_PERICENTER": 83.3516,
      "MEAN_ANOMALY": 276.7807,
      "EPHEMERIS_TYPE": 0,
      "CLASSIFICATION_TYPE": "U",
      "NORAD_CAT_ID": 49286,
      "ELEMENT_SET_NO": 999,
      "REV_AT_EPOCH": 21899,
      "BSTAR": 0.00021014024,
      "MEAN_MOTION_DOT": 9.8e-7,
      "MEAN_MOTION_DDOT": 0
    },
    {
      "OBJECT_NAME": "ONEWEB-0361",
      "OBJECT_ID": "2021-090J",
      "EPOCH": "2026-03-26T22:51:56.081952",
      "MEAN_MOTION": 13.20771271,
      "ECCENTRICITY": 0.00015314,
      "INCLINATION": 87.915,
      "RA_OF_ASC_NODE": 290.8585,
      "ARG_OF_PERICENTER": 91.9783,
      "MEAN_ANOMALY": 268.1526,
      "EPHEMERIS_TYPE": 0,
      "CLASSIFICATION_TYPE": "U",
      "NORAD_CAT_ID": 49287,
      "ELEMENT_SET_NO": 999,
      "REV_AT_EPOCH": 21944,
      "BSTAR": 0.000005969064,
      "MEAN_MOTION_DOT": 1.5e-7,
      "MEAN_MOTION_DDOT": 0
    },
    {
      "OBJECT_NAME": "ONEWEB-0362",
      "OBJECT_ID": "2021-090K",
      "EPOCH": "2026-03-26T14:42:20.868192",
      "MEAN_MOTION": 13.19725968,
      "ECCENTRICITY": 0.00019552,
      "INCLINATION": 87.92,
      "RA_OF_ASC_NODE": 321.4399,
      "ARG_OF_PERICENTER": 77.9149,
      "MEAN_ANOMALY": 282.2203,
      "EPHEMERIS_TYPE": 0,
      "CLASSIFICATION_TYPE": "U",
      "NORAD_CAT_ID": 49288,
      "ELEMENT_SET_NO": 999,
      "REV_AT_EPOCH": 21602,
      "BSTAR": 0.000042678905,
      "MEAN_MOTION_DOT": 3e-7,
      "MEAN_MOTION_DDOT": 0
    },
    {
      "OBJECT_NAME": "ONEWEB-0363",
      "OBJECT_ID": "2021-090L",
      "EPOCH": "2026-03-26T23:14:39.930144",
      "MEAN_MOTION": 13.20771723,
      "ECCENTRICITY": 0.00013773,
      "INCLINATION": 87.9149,
      "RA_OF_ASC_NODE": 290.8561,
      "ARG_OF_PERICENTER": 94.0546,
      "MEAN_ANOMALY": 266.0744,
      "EPHEMERIS_TYPE": 0,
      "CLASSIFICATION_TYPE": "U",
      "NORAD_CAT_ID": 49289,
      "ELEMENT_SET_NO": 999,
      "REV_AT_EPOCH": 21945,
      "BSTAR": 0.00012906171,
      "MEAN_MOTION_DOT": 6.5e-7,
      "MEAN_MOTION_DDOT": 0
    },
    {
      "OBJECT_NAME": "ONEWEB-0364",
      "OBJECT_ID": "2021-090M",
      "EPOCH": "2026-03-26T22:20:06.484704",
      "MEAN_MOTION": 13.20770723,
      "ECCENTRICITY": 0.00016789,
      "INCLINATION": 87.9139,
      "RA_OF_ASC_NODE": 290.8761,
      "ARG_OF_PERICENTER": 87.0065,
      "MEAN_ANOMALY": 273.1261,
      "EPHEMERIS_TYPE": 0,
      "CLASSIFICATION_TYPE": "U",
      "NORAD_CAT_ID": 49290,
      "ELEMENT_SET_NO": 999,
      "REV_AT_EPOCH": 22058,
      "BSTAR": -0.00015065308,
      "MEAN_MOTION_DOT": -4.8e-7,
      "MEAN_MOTION_DDOT": 0
    },
    {
      "OBJECT_NAME": "ONEWEB-0365",
      "OBJECT_ID": "2021-090N",
      "EPOCH": "2026-03-26T14:55:59.530656",
      "MEAN_MOTION": 13.1972587,
      "ECCENTRICITY": 0.00018227,
      "INCLINATION": 87.921,
      "RA_OF_ASC_NODE": 321.4191,
      "ARG_OF_PERICENTER": 83.3372,
      "MEAN_ANOMALY": 276.7969,
      "EPHEMERIS_TYPE": 0,
      "CLASSIFICATION_TYPE": "U",
      "NORAD_CAT_ID": 49291,
      "ELEMENT_SET_NO": 999,
      "REV_AT_EPOCH": 21553,
      "BSTAR": 0.000014820898,
      "MEAN_MOTION_DOT": 1.9e-7,
      "MEAN_MOTION_DDOT": 0
    },
    {
      "OBJECT_NAME": "ONEWEB-0366",
      "OBJECT_ID": "2021-090P",
      "EPOCH": "2026-03-26T13:02:48.030144",
      "MEAN_MOTION": 13.14503722,
      "ECCENTRICITY": 0.00016232,
      "INCLINATION": 87.8948,
      "RA_OF_ASC_NODE": 306.2069,
      "ARG_OF_PERICENTER": 84.0602,
      "MEAN_ANOMALY": 276.0713,
      "EPHEMERIS_TYPE": 0,
      "CLASSIFICATION_TYPE": "U",
      "NORAD_CAT_ID": 49292,
      "ELEMENT_SET_NO": 999,
      "REV_AT_EPOCH": 21670,
      "BSTAR": -0.00013107613,
      "MEAN_MOTION_DOT": -3.6e-7,
      "MEAN_MOTION_DDOT": 0
    },
    {
      "OBJECT_NAME": "ONEWEB-0367",
      "OBJECT_ID": "2021-090Q",
      "EPOCH": "2026-03-26T23:12:23.018112",
      "MEAN_MOTION": 13.20771104,
      "ECCENTRICITY": 0.0001893,
      "INCLINATION": 87.915,
      "RA_OF_ASC_NODE": 290.856,
      "ARG_OF_PERICENTER": 85.8745,
      "MEAN_ANOMALY": 274.2604,
      "EPHEMERIS_TYPE": 0,
      "CLASSIFICATION_TYPE": "U",
      "NORAD_CAT_ID": 49293,
      "ELEMENT_SET_NO": 999,
      "REV_AT_EPOCH": 21897,
      "BSTAR": 0.000048695052,
      "MEAN_MOTION_DOT": 3.3e-7,
      "MEAN_MOTION_DDOT": 0
    },
    {
      "OBJECT_NAME": "ONEWEB-0368",
      "OBJECT_ID": "2021-090R",
      "EPOCH": "2026-03-26T22:33:44.957952",
      "MEAN_MOTION": 13.20771762,
      "ECCENTRICITY": 0.00018427,
      "INCLINATION": 87.9137,
      "RA_OF_ASC_NODE": 290.8815,
      "ARG_OF_PERICENTER": 114.3038,
      "MEAN_ANOMALY": 245.8288,
      "EPHEMERIS_TYPE": 0,
      "CLASSIFICATION_TYPE": "U",
      "NORAD_CAT_ID": 49294,
      "ELEMENT_SET_NO": 999,
      "REV_AT_EPOCH": 22012,
      "BSTAR": 0.00018887003,
      "MEAN_MOTION_DOT": 9e-7,
      "MEAN_MOTION_DDOT": 0
    },
    {
      "OBJECT_NAME": "ONEWEB-0369",
      "OBJECT_ID": "2021-090S",
      "EPOCH": "2026-03-26T14:49:10.472448",
      "MEAN_MOTION": 13.1972599,
      "ECCENTRICITY": 0.0001763,
      "INCLINATION": 87.9199,
      "RA_OF_ASC_NODE": 321.4363,
      "ARG_OF_PERICENTER": 85.4345,
      "MEAN_ANOMALY": 274.6989,
      "EPHEMERIS_TYPE": 0,
      "CLASSIFICATION_TYPE": "U",
      "NORAD_CAT_ID": 49295,
      "ELEMENT_SET_NO": 999,
      "REV_AT_EPOCH": 21552,
      "BSTAR": 0.000084773908,
      "MEAN_MOTION_DOT": 4.7e-7,
      "MEAN_MOTION_DDOT": 0
    },
    {
      "OBJECT_NAME": "ONEWEB-0370",
      "OBJECT_ID": "2021-090T",
      "EPOCH": "2026-03-26T07:04:13.545408",
      "MEAN_MOTION": 13.20771529,
      "ECCENTRICITY": 0.0001798,
      "INCLINATION": 87.9149,
      "RA_OF_ASC_NODE": 290.9916,
      "ARG_OF_PERICENTER": 79.3537,
      "MEAN_ANOMALY": 280.7799,
      "EPHEMERIS_TYPE": 0,
      "CLASSIFICATION_TYPE": "U",
      "NORAD_CAT_ID": 49296,
      "ELEMENT_SET_NO": 999,
      "REV_AT_EPOCH": 21892,
      "BSTAR": 0.00018524,
      "MEAN_MOTION_DOT": 8.8e-7,
      "MEAN_MOTION_DDOT": 0
    },
    {
      "OBJECT_NAME": "ONEWEB-0371",
      "OBJECT_ID": "2021-090U",
      "EPOCH": "2026-03-26T15:00:32.584032",
      "MEAN_MOTION": 13.19726482,
      "ECCENTRICITY": 0.00018581,
      "INCLINATION": 87.92,
      "RA_OF_ASC_NODE": 321.4238,
      "ARG_OF_PERICENTER": 81.3596,
      "MEAN_ANOMALY": 278.7747,
      "EPHEMERIS_TYPE": 0,
      "CLASSIFICATION_TYPE": "U",
      "NORAD_CAT_ID": 49297,
      "ELEMENT_SET_NO": 999,
      "REV_AT_EPOCH": 21556,
      "BSTAR": -0.000075687441,
      "MEAN_MOTION_DOT": -1.7e-7,
      "MEAN_MOTION_DDOT": 0
    },
    {
      "OBJECT_NAME": "ONEWEB-0372",
      "OBJECT_ID": "2021-090V",
      "EPOCH": "2026-03-26T23:09:55.548864",
      "MEAN_MOTION": 13.2077191,
      "ECCENTRICITY": 0.00018051,
      "INCLINATION": 87.9149,
      "RA_OF_ASC_NODE": 290.8582,
      "ARG_OF_PERICENTER": 90.8605,
      "MEAN_ANOMALY": 269.2735,
      "EPHEMERIS_TYPE": 0,
      "CLASSIFICATION_TYPE": "U",
      "NORAD_CAT_ID": 49298,
      "ELEMENT_SET_NO": 999,
      "REV_AT_EPOCH": 21898,
      "BSTAR": 0.000004778484,
      "MEAN_MOTION_DOT": 1.5e-7,
      "MEAN_MOTION_DDOT": 0
    }
  ]
