ONEWEB-0360             
1 49286U 21090H   26085.97167031  .00000098  00000+0  21014-3 0  9993
2 49286  87.9149 290.8567 0001670  83.3516 276.7807 13.20771335218994
ONEWEB-0361             
1 49287U 21090J   26085.95273243  .00000015  00000+0  59691-5 0  9998
2 49287  87.9150 290.8585 0001531  91.9783 268.1526 13.20771271219447
ONEWEB-0362             
1 49288U 21090K   26085.61274153  .00000030  00000+0  42679-4 0  9997
2 49288  87.9200 321.4399 0001955  77.9149 282.2203 13.19725968216028
ONEWEB-0363             
1 49289U 21090L   26085.96851771  .00000065  00000+0  12906-3 0  9990
2 49289  87.9149 290.8561 0001377  94.0546 266.0744 13.20771723219452
ONEWEB-0364             
1 49290U 21090M   26085.93063061 -.00000048  00000+0 -15065-3 0  9998
2 49290  87.9139 290.8761 0001678  87.0065 273.1261 13.20770723220585
ONEWEB-0365             
1 49291U 21090N   26085.62221679  .00000019  00000+0  14821-4 0  9992
2 49291  87.9210 321.4191 0001822  83.3372 276.7969 13.19725870215539
ONEWEB-0366             
1 49292U 21090P   26085.54361146 -.00000036  00000+0 -13108-3 0  9995
2 49292  87.8948 306.2069 0001623  84.0602 276.0713 13.14503722216700
ONEWEB-0367             
1 49293U 21090Q   26085.96693308  .00000033  00000+0  48695-4 0  9995
2 49293  87.9150 290.8560 0001893  85.8745 274.2604 13.20771104218975
ONEWEB-0368             
1 49294U 21090R   26085.94010368  .00000090  00000+0  18887-3 0  9995
2 49294  87.9137 290.8815 0001842 114.3038 245.8288 13.20771762220123
ONEWEB-0369             
1 49295U 21090S   26085.61748232  .00000047  00000+0  84774-4 0  9999
2 49295  87.9199 321.4363 0001763  85.4345 274.6989 13.19725990215528
ONEWEB-0370             
1 49296U 21090T   26085.29460122  .00000088  00000+0  18524-3 0  9997
2 49296  87.9149 290.9916 0001798  79.3537 280.7799 13.20771529218926
ONEWEB-0371             
1 49297U 21090U   26085.62537713 -.00000017  00000+0 -75687-4 0  9994
2 49297  87.9200 321.4238 0001858  81.3596 278.7747 13.19726482215560
ONEWEB-0372             
1 49298U 21090V   26085.96522626  .00000015  00000+0  47785-5 0  9994
2 49298  87.9149 290.8582 0001805  90.8605 269.2735 13.20771910218981
